{
  "type": "FeatureCollection",
  "features": [
    {
      "type": "Feature",
      "properties": {
        "norad_id": 41384,
        "name": "IRNSS-1F",
        "group": "gnss",
        "lat": 2.908754767712342,
        "lon": -115.55311240061069,
        "alt_km": 35710.14302917573,
        "timestamp": "2025-12-08T08:59:01.008488+00:00",
        "meta_object_name": "IRNSS-1F",
        "meta_object_id": "2016-015A",
        "meta_epoch": "2025-12-07T22:20:59.593056",
        "meta_mean_motion": 1.00269976,
        "meta_eccentricity": 0.00224645,
        "meta_inclination": 4.8685,
        "meta_ra_of_asc_node": 101.419,
        "meta_arg_of_pericenter": 180.066,
        "meta_mean_anomaly": 163.0743,
        "meta_ephemeris_type": 0,
        "meta_classification_type": "U",
        "meta_norad_cat_id": 41384,
        "meta_element_set_no": 999,
        "meta_rev_at_epoch": 3574,
        "meta_bstar": 0,
        "meta_mean_motion_dot": 1.6e-06,
        "meta_mean_motion_ddot": 0,
        "tle_line1": "1 41384U 16015A   25341.93124529  .00000160  00000+0  00000+0 0  9998",
        "tle_line2": "2 41384   4.8685 101.4190 0022464 180.0660 163.0743  1.00269976 35741"
      },
      "geometry": {
        "type": "Point",
        "coordinates": [
          -115.55311240061069,
          2.908754767712342
        ]
      }
    },
    {
      "type": "Feature",
      "properties": {
        "norad_id": 41434,
        "name": "BEIDOU-2 IGSO-6 (C13)",
        "group": "gnss",
        "lat": -59.43769437196466,
        "lon": -61.84800325594066,
        "alt_km": 35586.2192793043,
        "timestamp": "2025-12-08T08:59:01.008500+00:00",
        "meta_object_name": "BEIDOU-2 IGSO-6 (C13)",
        "meta_object_id": "2016-021A",
        "meta_epoch": "2025-12-01T15:57:35.287200",
        "meta_mean_motion": 1.00256562,
        "meta_eccentricity": 0.00591323,
        "meta_inclination": 59.9483,
        "meta_ra_of_asc_node": 40.0119,
        "meta_arg_of_pericenter": 231.2834,
        "meta_mean_anomaly": 130.8807,
        "meta_ephemeris_type": 0,
        "meta_classification_type": "U",
        "meta_norad_cat_id": 41434,
        "meta_element_set_no": 999,
        "meta_rev_at_epoch": 3550,
        "meta_bstar": 0,
        "meta_mean_motion_dot": -1.55e-06,
        "meta_mean_motion_ddot": 0,
        "tle_line1": "1 41434U 16021A   25335.66499175 -.00000155  00000+0  00000+0 0  9991",
        "tle_line2": "2 41434  59.9483  40.0119 0059132 231.2834 130.8807  1.00256562 35501"
      },
      "geometry": {
        "type": "Point",
        "coordinates": [
          -61.84800325594066,
          -59.43769437196466
        ]
      }
    },
    {
      "type": "Feature",
      "properties": {
        "norad_id": 41469,
        "name": "IRNSS-1G",
        "group": "gnss",
        "lat": -4.058516969219062,
        "lon": -18.68549853288075,
        "alt_km": 35794.809908538555,
        "timestamp": "2025-12-08T08:59:01.008514+00:00",
        "meta_object_name": "IRNSS-1G",
        "meta_object_id": "2016-027A",
        "meta_epoch": "2025-12-07T19:23:13.831008",
        "meta_mean_motion": 1.00251719,
        "meta_eccentricity": 0.000464,
        "meta_inclination": 4.7208,
        "meta_ra_of_asc_node": 102.2264,
        "meta_arg_of_pericenter": 336.4461,
        "meta_mean_anomaly": 58.3131,
        "meta_ephemeris_type": 0,
        "meta_classification_type": "U",
        "meta_norad_cat_id": 41469,
        "meta_element_set_no": 999,
        "meta_rev_at_epoch": 3526,
        "meta_bstar": 0,
        "meta_mean_motion_dot": -3.35e-06,
        "meta_mean_motion_ddot": 0,
        "tle_line1": "1 41469U 16027A   25341.80779897 -.00000335  00000+0  00000+0 0  9990",
        "tle_line2": "2 41469   4.7208 102.2264 0004640 336.4461  58.3131  1.00251719 35268"
      },
      "geometry": {
        "type": "Point",
        "coordinates": [
          -18.68549853288075,
          -4.058516969219062
        ]
      }
    },
    {
      "type": "Feature",
      "properties": {
        "norad_id": 41549,
        "name": "GSAT0211 (GALILEO 14)",
        "group": "gnss",
        "lat": 36.43419758299566,
        "lon": 16.03634931846429,
        "alt_km": 23223.639971653753,
        "timestamp": "2025-12-08T08:59:01.008528+00:00",
        "meta_object_name": "GSAT0211 (GALILEO 14)",
        "meta_object_id": "2016-030A",
        "meta_epoch": "2025-12-07T13:40:58.264320",
        "meta_mean_motion": 1.70472997,
        "meta_eccentricity": 0.00040128,
        "meta_inclination": 55.154,
        "meta_ra_of_asc_node": 226.9659,
        "meta_arg_of_pericenter": 14.4678,
        "meta_mean_anomaly": 345.6377,
        "meta_ephemeris_type": 0,
        "meta_classification_type": "U",
        "meta_norad_cat_id": 41549,
        "meta_element_set_no": 999,
        "meta_rev_at_epoch": 5940,
        "meta_bstar": 0,
        "meta_mean_motion_dot": 2.3e-07,
        "meta_mean_motion_ddot": 0,
        "tle_line1": "1 41549U 16030A   25341.57011880  .00000023  00000+0  00000+0 0  9991",
        "tle_line2": "2 41549  55.1540 226.9659 0004012  14.4678 345.6377  1.70472997 59400"
      },
      "geometry": {
        "type": "Point",
        "coordinates": [
          16.03634931846429,
          36.43419758299566
        ]
      }
    },
    {
      "type": "Feature",
      "properties": {
        "norad_id": 41550,
        "name": "GSAT0210 (GALILEO 13)",
        "group": "gnss",
        "lat": -19.83071823997676,
        "lon": -147.58586861630403,
        "alt_km": 23225.060632642948,
        "timestamp": "2025-12-08T08:59:01.008540+00:00",
        "meta_object_name": "GSAT0210 (GALILEO 13)",
        "meta_object_id": "2016-030B",
        "meta_epoch": "2025-12-04T07:23:32.472672",
        "meta_mean_motion": 1.70473512,
        "meta_eccentricity": 0.0001419,
        "meta_inclination": 55.1546,
        "meta_ra_of_asc_node": 227.0538,
        "meta_arg_of_pericenter": 244.2228,
        "meta_mean_anomaly": 115.8568,
        "meta_ephemeris_type": 0,
        "meta_classification_type": "U",
        "meta_norad_cat_id": 41550,
        "meta_element_set_no": 999,
        "meta_rev_at_epoch": 5934,
        "meta_bstar": 0,
        "meta_mean_motion_dot": 4e-07,
        "meta_mean_motion_ddot": 0,
        "tle_line1": "1 41550U 16030B   25338.30801473  .00000040  00000+0  00000+0 0  9994",
        "tle_line2": "2 41550  55.1546 227.0538 0001419 244.2228 115.8568  1.70473512 59344"
      },
      "geometry": {
        "type": "Point",
        "coordinates": [
          -147.58586861630403,
          -19.83071823997676
        ]
      }
    },
    {
      "type": "Feature",
      "properties": {
        "norad_id": 41586,
        "name": "BEIDOU-2 G7 (C03)",
        "group": "gnss",
        "lat": -1.6935212889048368,
        "lon": -37.44736334255991,
        "alt_km": 35792.11701661482,
        "timestamp": "2025-12-08T08:59:01.008555+00:00",
        "meta_object_name": "BEIDOU-2 G7 (C03)",
        "meta_object_id": "2016-037A",
        "meta_epoch": "2025-12-07T22:43:12.465984",
        "meta_mean_motion": 1.00269482,
        "meta_eccentricity": 0.00044255,
        "meta_inclination": 1.7451,
        "meta_ra_of_asc_node": 67.7531,
        "meta_arg_of_pericenter": 0.5194,
        "meta_mean_anomaly": 99.9683,
        "meta_ephemeris_type": 0,
        "meta_classification_type": "U",
        "meta_norad_cat_id": 41586,
        "meta_element_set_no": 999,
        "meta_rev_at_epoch": 497,
        "meta_bstar": 0,
        "meta_mean_motion_dot": -3.51e-06,
        "meta_mean_motion_ddot": 0,
        "tle_line1": "1 41586U 16037A   25341.94667206 -.00000351  00000+0  00000+0 0  9994",
        "tle_line2": "2 41586   1.7451  67.7531 0004425   0.5194  99.9683  1.00269482  4973"
      },
      "geometry": {
        "type": "Point",
        "coordinates": [
          -37.44736334255991,
          -1.6935212889048368
        ]
      }
    },
    {
      "type": "Feature",
      "properties": {
        "norad_id": 41589,
        "name": "EUTELSAT 117 WEST B (WAAS/PRN 131)",
        "group": "gnss",
        "lat": -0.015413627159890477,
        "lon": 95.1088079309183,
        "alt_km": 35786.105628797864,
        "timestamp": "2025-12-08T08:59:01.008567+00:00",
        "meta_object_name": "EUTELSAT 117 WEST B (WAAS/PRN 131)",
        "meta_object_id": "2016-038B",
        "meta_epoch": "2025-12-07T16:30:05.997888",
        "meta_mean_motion": 1.00264607,
        "meta_eccentricity": 5.814e-05,
        "meta_inclination": 0.0035,
        "meta_ra_of_asc_node": 146.5968,
        "meta_arg_of_pericenter": 345.3614,
        "meta_mean_anomaly": 75.2712,
        "meta_ephemeris_type": 0,
        "meta_classification_type": "U",
        "meta_norad_cat_id": 41589,
        "meta_element_set_no": 999,
        "meta_rev_at_epoch": 3474,
        "meta_bstar": 0,
        "meta_mean_motion_dot": -7e-08,
        "meta_mean_motion_ddot": 0,
        "tle_line1": "1 41589U 16038B   25341.68756942 -.00000007  00000+0  00000+0 0  9993",
        "tle_line2": "2 41589   0.0035 146.5968 0000581 345.3614  75.2712  1.00264607 34744"
      },
      "geometry": {
        "type": "Point",
        "coordinates": [
          95.1088079309183,
          -0.015413627159890477
        ]
      }
    }
  ]
}